NORAD_CAT_ID,OBJECT_NAME,OBJECT_TYPE,EPOCH,MEAN_MOTION,ECCENTRICITY,INCLINATION,RA_OF_ASC_NODE,ARG_OF_PERICENTER,MEAN_ANOMALY,BSTAR,MEAN_MOTION_DOT,MEAN_MOTION_DDOT,TLE_LINE0,TLE_LINE1,TLE_LINE2,SEMIMAJOR_AXIS,PERIOD,APOGEE,PERIGEE,DECAYED
52537.0,STARLINK-3897,PAYLOAD,2022-12-03 13:55:23,15.08844325,0.0002062,53.218,80.7262,44.2994,315.8162,5.6274e-05,6.08e-06,0.0,0 STARLINK-3897,1 52537U 22051E   22337.58013477  .00000608  00000-0  56274-4 0  9996,2 52537  53.2180  80.7262 0002062  44.2994 315.8162 15.08844325 31471,6917.8669999999975,95.437,541.159,538.306,0.0
52537.0,STARLINK-3897,PAYLOAD,2022-12-03 17:06:10,15.08842063,0.0001996,53.2186,80.1312,40.1276,319.9863,4.0342e-05,3.54e-06,0.0,0 STARLINK-3897,1 52537U 22051E   22337.71261699  .00000354  00000-0  40342-4 0  9999,2 52537  53.2186  80.1312 0001996  40.1276 319.9863 15.08842063 31492,6917.874,95.437,541.12,538.3580000000002,0.0
52537.0,STARLINK-3897,PAYLOAD,2022-12-03 18:41:33,15.08838323,0.0002001,53.219,79.8336,39.0959,321.0177,1.5474e-05,-4.2e-07,0.0,0 STARLINK-3897,1 52537U 22051E   22337.77886015 -.00000042  00000-0  15474-4 0  9993,2 52537  53.2190  79.8336 0002001  39.0959 321.0177 15.08838323 31576,6917.886,95.438,541.135,538.366,0.0
52537.0,STARLINK-3897,PAYLOAD,2022-12-04 10:35:24,15.0883725,0.0001976,53.2187,76.8599,38.1886,321.9246,6.167399999999999e-05,6.93e-06,0.0,0 STARLINK-3897,1 52537U 22051E   22338.44125936  .00000693  00000-0  61674-4 0  9990,2 52537  53.2187  76.8599 0001976  38.1886 321.9246 15.08837250 31607,6917.889,95.438,541.121,538.387,0.0
52537.0,STARLINK-3897,PAYLOAD,2022-12-04 12:10:47,15.0883744,0.000199,53.2186,76.5626,38.2534,321.8599,6.1335e-05,6.88e-06,0.0,0 STARLINK-3897,1 52537U 22051E   22338.50749936  .00000688  00000-0  61335-4 0  9997,2 52537  53.2186  76.5626 0001990  38.2534 321.8599 15.08837440 31613,6917.888000000001,95.438,541.13,538.377,0.0
52537.0,STARLINK-3897,PAYLOAD,2022-12-04 23:18:30,15.08833876,0.0002057,53.2186,74.4811,38.3544,321.7595,6.8715e-05,8.05e-06,0.0,0 STARLINK-3897,1 52537U 22051E   22338.97118351  .00000805  00000-0  68715-4 0  9999,2 52537  53.2186  74.4811 0002057  38.3544 321.7595 15.08833876 31752,6917.899,95.438,541.187,538.341,0.0
52537.0,STARLINK-3897,PAYLOAD,2022-12-05 13:36:58,15.08841753,0.0002119,53.2168,71.8032,34.9156,325.1974,5.1934e-05,5.38e-06,0.0,0 STARLINK-3897,1 52537U 22051E   22339.56733985  .00000538  00000-0  51934-4 0  9999,2 52537  53.2168  71.8032 0002119  34.9156 325.1974 15.08841753 31772,6917.875,95.437,541.206,538.274,0.0
52537.0,STARLINK-3897,PAYLOAD,2022-12-06 07:06:12,15.08845767,0.0002232,53.2192,68.5326,44.6116,315.5056,0.00012377,1.682e-05,0.0,0 STARLINK-3897,1 52537U 22051E   22340.29597496  .00001682  00000-0  12377-3 0  9994,2 52537  53.2192  68.5326 0002232  44.6116 315.5056 15.08845767 31883,6917.863,95.437,541.2719999999998,538.184,0.0
52537.0,STARLINK-3897,PAYLOAD,2022-12-06 18:13:55,15.08824789,0.0002864,53.2201,66.4538,34.8813,325.2366,-4.9357e-05,-1.074e-05,0.0,0 STARLINK-3897,1 52537U 22051E   22340.75967579 -.00001074  00000-0 -49357-4 0  9994,2 52537  53.2201  66.4538 0002864  34.8813 325.2366 15.08824789 31953,6917.927,95.439,541.773,537.811,0.0
52537.0,STARLINK-3897,PAYLOAD,2022-12-07 11:43:10,15.08832445,0.0001972,53.2182,63.1811,40.3598,319.7541,-7.6883e-05,-1.511e-05,0.0,0 STARLINK-3897,1 52537U 22051E   22341.48831436 -.00001511  00000-0 -76883-4 0  9997,2 52537  53.2182  63.1811 0001972  40.3598 319.7541 15.08832445 32132,6917.903,95.438,541.133,538.404,0.0
52537.0,STARLINK-3897,PAYLOAD,2022-12-07 18:04:42,15.08843286,0.0002209,53.2188,61.9909,43.6078,316.5089,9.0227e-05,1.148e-05,0.0,0 STARLINK-3897,1 52537U 22051E   22341.75326547  .00001148  00000-0  90227-4 0  9991,2 52537  53.2188  61.9909 0002209  43.6078 316.5089 15.08843286 32176,6917.87,95.437,541.264,538.207,0.0
52537.0,STARLINK-3897,PAYLOAD,2022-12-07 22:50:50,15.08855241,0.0001575,53.2206,61.1004,19.4154,340.6898,0.00014111,1.959e-05,0.0,0 STARLINK-3897,1 52537U 22051E   22341.95197245  .00001959  00000-0  14111-3 0  9991,2 52537  53.2206  61.1004 0001575  19.4154 340.6898 15.08855241 32200,6917.834,95.437,540.788,538.609,0.0
52537.0,STARLINK-3897,PAYLOAD,2022-12-08 11:33:56,15.08837765,0.0001924,53.2204,58.7219,17.4618,342.644,2.258e-05,7.1e-07,0.0,0 STARLINK-3897,1 52537U 22051E   22342.48190665  .00000071  00000-0  22580-4 0  9993,2 52537  53.2204  58.7219 0001924  17.4618 342.6440 15.08837765 32216,6917.887,95.438,541.0830000000002,538.4209999999998,0.0
52537.0,STARLINK-3897,PAYLOAD,2022-12-09 05:03:11,15.08835149,0.0002268,53.2187,55.4551,28.7566,331.355,0.00072646,0.00011291,0.0,0 STARLINK-3897,1 52537U 22051E   22343.21054461  .00011291  00000-0  72646-3 0  9991,2 52537  53.2187  55.4551 0002268  28.7566 331.3550 15.08835149 32321,6917.895,95.438,541.3290000000002,538.191,0.0
52537.0,STARLINK-3897,PAYLOAD,2022-12-09 16:11:00,15.0866436,0.0002689,53.2184,53.374,35.7596,324.3576,-0.0027001,-0.00042803,0.0,0 STARLINK-3897,1 52537U 22051E   22343.67430718 -.00042803  00000-0 -27001-2 0  9993,2 52537  53.2184  53.3740 0002689  35.7596 324.3576 15.08664360 32463,6918.417,95.449,542.143,538.422,0.0
52537.0,STARLINK-3897,PAYLOAD,2022-12-10 04:53:57,15.08845056,0.0001869,53.2174,50.9939,337.0838,23.0071,-0.00089964,-0.0001458,0.0,0 STARLINK-3897,1 52537U 22051E   22344.20413780 -.00014580  00000-0 -89964-3 0  9991,2 52537  53.2174  50.9939 0001869 337.0838  23.0071 15.08845056 32546,6917.865,95.437,541.023,538.437,0.0
52537.0,STARLINK-3897,PAYLOAD,2022-12-10 11:15:31,15.0884935,0.0001879,53.218,49.8036,49.1867,310.9288,-0.00040813,-6.779e-05,0.0,0 STARLINK-3897,1 52537U 22051E   22344.46911941 -.00006779  00000-0 -40813-3 0  9992,2 52537  53.2180  49.8036 0001879  49.1867 310.9288 15.08849350 32585,6917.852,95.437,541.0169999999998,538.4169999999998,0.0
52537.0,STARLINK-3897,PAYLOAD,2022-12-10 14:26:15,15.08908816,0.0002307,53.2173,49.2069,24.1747,335.9353,-0.00097254,-0.00015763,0.0,0 STARLINK-3897,1 52537U 22051E   22344.60157121 -.00015763  00000-0 -97254-3 0  9994,2 52537  53.2173  49.2069 0002307  24.1747 335.9353 15.08908816 32600,6917.67,95.433,541.131,537.939,0.0
52537.0,STARLINK-3897,PAYLOAD,2022-12-11 11:06:18,15.08834588,0.0002111,53.2165,45.3388,39.8883,320.2264,0.00030614,4.587e-05,0.0,0 STARLINK-3897,1 52537U 22051E   22345.46271025  .00004587  00000-0  30614-3 0  9996,2 52537  53.2165  45.3388 0002111  39.8883 320.2264 15.08834588 32735,6917.897,95.438,541.222,538.302,0.0
52537.0,STARLINK-3897,PAYLOAD,2022-12-11 15:52:28,15.08830451,0.0002225,53.2181,44.4474,38.8478,321.2674,0.00023761,3.494e-05,0.0,0 STARLINK-3897,1 52537U 22051E   22345.66143625  .00003494  00000-0  23761-3 0  9993,2 52537  53.2181  44.4474 0002225  38.8478 321.2674 15.08830451 32768,6917.91,95.438,541.314,538.235,0.0
52537.0,STARLINK-3897,PAYLOAD,2022-12-12 09:21:42,15.08835723,0.0002015,53.2184,41.1768,47.6563,312.4599,0.00010756,1.424e-05,0.0,0 STARLINK-3897,1 52537U 22051E   22346.39008040  .00001424  00000-0  10756-3 0  9996,2 52537  53.2184  41.1768 0002015  47.6563 312.4599 15.08835723 32801,6917.893,95.438,541.1519999999998,538.365,0.0
52537.0,STARLINK-3897,PAYLOAD,2022-12-12 20:29:24,15.08842811,0.0002227,53.2179,39.0945,43.5065,316.6102,0.00016458,2.332e-05,0.0,0 STARLINK-3897,1 52537U 22051E   22346.85375451  .00002332  00000-0  16458-3 0  9994,2 52537  53.2179  39.0945 0002227  43.5065 316.6102 15.08842811 32874,6917.871999999999,95.437,541.2769999999998,538.196,0.0
52537.0,STARLINK-3897,PAYLOAD,2022-12-13 02:50:56,15.08851458,0.0002057,53.2179,37.9056,44.5571,315.5586,3.0192e-05,1.92e-06,0.0,0 STARLINK-3897,1 52537U 22051E   22347.11871134  .00000192  00000-0  30192-4 0  9997,2 52537  53.2179  37.9056 0002057  44.5571 315.5586 15.08851458 32981,6917.845,95.437,541.133,538.2869999999998,0.0
52537.0,STARLINK-3897,PAYLOAD,2022-12-13 07:37:06,15.08843372,0.0002443,53.2185,37.0144,44.8219,315.297,-8.8579e-06,-4.29e-06,0.0,0 STARLINK-3897,1 52537U 22051E   22347.31743869 -.00000429  00000-0 -88579-5 0  9990,2 52537  53.2185  37.0144 0002443  44.8219 315.2970 15.08843372 33013,6917.87,95.437,541.425,538.045,0.0
52537.0,STARLINK-3897,PAYLOAD,2022-12-13 12:23:16,15.08837216,0.0002084,53.2183,36.1212,47.2883,312.8285,-4.744e-05,-1.043e-05,0.0,0 STARLINK-3897,1 52537U 22051E   22347.51616222 -.00001043  00000-0 -47440-4 0  9998,2 52537  53.2183  36.1212 0002084  47.2883 312.8285 15.08837216 32978,6917.889,95.438,541.196,538.312,0.0
52537.0,STARLINK-3897,PAYLOAD,2022-12-14 12:14:02,15.08841424,0.0002214,53.2168,31.6603,34.3073,325.8061,5.695e-05,6.18e-06,0.0,0 STARLINK-3897,1 52537U 22051E   22348.50975601  .00000618  00000-0  56950-4 0  9998,2 52537  53.2168  31.6603 0002214  34.3073 325.8061 15.08841424 33195,6917.876,95.437,541.273,538.2090000000002,0.0
52537.0,STARLINK-3897,PAYLOAD,2022-12-14 20:10:58,15.08848648,0.0002006,53.216,30.1745,34.9877,325.1247,5.6152e-05,6.06e-06,0.0,0 STARLINK-3897,1 52537U 22051E   22348.84094998  .00000606  00000-0  56152-4 0  9997,2 52537  53.2160  30.1745 0002006  34.9877 325.1247 15.08848648 33177,6917.854,95.437,541.107,538.331,0.0
52537.0,STARLINK-3897,PAYLOAD,2022-12-15 12:04:49,15.08836358,0.0002401,53.2173,27.2001,34.0795,326.0351,1.8662e-05,9e-08,0.0,0 STARLINK-3897,1 52537U 22051E   22349.50334817  .00000009  00000-0  18662-4 0  9999,2 52537  53.2173  27.2001 0002401  34.0795 326.0351 15.08836358 33274,6917.892,95.438,541.418,538.096,0.0
52537.0,STARLINK-3897,PAYLOAD,2022-12-15 20:01:45,15.08831356,0.0002417,53.217,25.7136,34.5353,325.5796,-5.2555e-05,-1.125e-05,0.0,0 STARLINK-3897,1 52537U 22051E   22349.83455319 -.00001125  00000-0 -52555-4 0  9997,2 52537  53.2170  25.7136 0002417  34.5353 325.5796 15.08831356 33321,6917.906999999997,95.438,541.444,538.1,0.0
